#dP2020  5 12  0  0  0.00000000      96 __u+U ITR00 FIT  IAC
## 2105 172800.00000000   900.00000000 58981 0.0000000000000
+  117   C06C07C08C09C10C11C12C13C14C16C19C20C21C22C23C24C25
+        C26C27C28C29C30C32C33C34C35C36C37C38C39C40C43C44C45
+        C46E01E02E03E04E05E07E08E09E11E12E13E14E15E18E19E21
+        E24E25E26E27E30E31E33E36G01G02G03G04G05G06G07G08G09
+        G10G11G12G13G14G15G16G17G18G19G20G21G22G23G24G25G26
+        G27G28G29G30G31G32J01J02J03R01R02R03R04R05R07R08R09
+        R11R12R13R14R15R16R17R18R19R20R21R22R23R24R26  0  0
++         9  8  8  8  9  6  7  7  7  8  8  8  7  7  7  6  6
++         7  7  6  8  8  8  7  7  9  8  6 13  9 15  7  9 10
++         9  7  5  4  6  6  6  5  6  6  7  6  6  5  6  5  5
++         6  7  5  6  7  7  5  7  7  5  6  5  6 11  5  6  5
++         6  4  5  6  5  6  5  5  4  5  5  8  5  8  6  7  6
++         6  5  5  4  6  6 10  5  7  7  5  7  5  7  5  6  7
++         6  6  7  6  8  6  6  6  8  6  7  6  7  5  6  0  0
%c M  cc GPS ccc cccc cccc cccc cccc ccccc ccccc ccccc ccccc
%c cc cc ccc ccc cccc cccc cccc cccc ccccc ccccc ccccc ccccc
%f  0.0000000  0.000000000  0.00000000000  0.000000000000000
%f  0.0000000  0.000000000  0.00000000000  0.000000000000000
%i    0    0    0    0      0      0      0      0         0
%i    0    0    0    0      0      0      0      0         0
/* INFORMATION & ANALYSIS CENTER (IAC)      ULTRA-RAPID DATA
/* S/V CLOCKS ARE ALIGNED TO GNSS TIME                      
/* G:C1WC2W R:C1PC2P E:C1XC5X C:C2IC6I J:C1CC2S             
/* PCV:IGS14_2101 OL/AL:FES2004  NONE     YN ORB:CoN CLK:CoN
*  2020 05 12 21 45  0.00000000
PC06 -23087.849632  24641.500353  25378.428837    731.221633
PC07 -16162.265384  37846.711365  10501.082168    -27.882590
PC08  -7245.892521  22119.512226 -35015.097390   -249.285817
PC09  -5609.183497  25482.467693  33325.046852    536.098973
PC10  -5488.150582  41897.366765  -3303.432543   -937.331063
PC11 -16228.071754  12129.738041 -19156.143501   -360.713822
PC12 -27566.442557   2088.505489  -3859.918578    371.336476
PC13   6131.803352  30826.613388 -27893.342411    432.356868
PC14 -15457.617572  23137.828220  -2466.502628    399.612091
PC16 -19988.233868  25047.164804  27377.791192   -646.889367
PC19   9455.491087 -25406.033600  -6548.608919    410.539080
PC20  18767.382907 -17760.579394  10522.590433   -878.675050
PC21 -17242.231547   -727.637597 -21909.418711   -393.322713
PC22  -5563.331496 -18405.360269 -20200.797153   -808.710410
PC23  13909.516872  24186.624083   -648.438807   -878.683359
PC24 -13972.156567   8125.047955  22741.959726   -824.452144
PC25    916.887932  23197.147157  15469.987456   -614.761822
PC26 -19806.607816 -10165.103959  16839.652922    678.196464
PC27  27086.301981   4328.485746  -5217.521009    328.920219
PC28  14335.178332  13870.299327 -19513.840487    320.018473
PC29   6138.871408 -15539.162249  22343.857543    227.624532
PC30  23824.003981  -8458.840347  11839.267054    315.954404
PC32  17268.553106    635.852428  21931.273765   -894.890919
PC33  -9338.945208  25486.474576   6541.049042   -839.352628
PC34 -23521.514670   8679.943630 -12233.397271   -713.465868
PC35 -14598.832463 -13489.708555  19568.250575   -847.854121
PC36   -213.185112 -23108.796341 -15614.025325   -829.313607
PC37  19564.227098  11229.483300 -16404.060268   -842.744919
PC38  -3154.417320  27414.785634 -31853.177733     77.526289
PC39 -15401.878885  26530.335180  28909.088307     15.708080
PC40 -11899.628077  40539.697231   -702.991936 999999.999999
PC43  -6512.074821  15580.697177 -22217.942781 999999.999999
PC44 -27134.353762  -3580.371020   5340.696285 999999.999999
PC45 -13983.850898 -24150.397374    629.480781 999999.999999
PC46  13538.064645  -8637.090701 -22815.363212    838.705740
PE01  15201.497146  14097.056768 -21129.504531   -855.179950
PE02 -15219.774621 -14019.814344  21165.418473    132.894032
PE03 -20402.969306  -4121.703279 -21044.118377   -297.972273
PE04  26143.608212 -12143.424035   6733.488503   -524.109897
PE05  -2610.289891 -18188.592267 -23196.937797   -380.780102
PE07 -16555.026765  21527.757315  11802.077067   -380.917116
PE08 -26018.241709  12521.495634  -6539.445457   6179.203193
PE09  16380.220775 -21572.063924 -11907.385700   6063.319431
PE11   7558.546121 -14433.861585  24706.099248   2796.439585
PE12  24441.421882   -752.123699  16698.476814   5808.598111
PE13  -7699.392062  14281.517537 -24752.732921    400.796983
PE14   9630.997840  18454.276943 -24784.953896  -1011.586503
PE15 -24287.997549    971.843242 -16879.042429    867.291997
PE18 -14178.503652 -10243.049976  16374.388748  -1110.484923
PE19  18882.993198   5790.599596  22058.611849  -1998.015931
PE21   6407.267883  28222.069732  -6224.267097   -598.567949
PE24   6622.694649 -25912.335098 -12718.073917   5459.111091
PE25  -6327.708163 -28265.555969   6099.965124   -510.485087
PE26  13618.987293  19390.166440 -17739.375129   3196.785914
PE27  -6323.623060  26051.657868  12545.749850    221.406875
PE30 -15442.097497   8150.455262  23888.407670   3912.463062
PE31  15274.175227  -8593.512554 -23850.380990   -472.530317
PE33  26627.184891  12914.090778   -904.063230   -467.360392
PE36 -13391.987605 -19207.715141  18105.005474    561.010930
PG01  21768.235360  14571.513524   5154.212464   -378.647980
PG02  -9250.000287 -20270.908707  15137.588256   -454.832701
PG03  13439.466463   8245.093163  21329.216432   -173.713176
PG04  23239.558484   2139.798537  12721.528216    -88.493887
PG05  -2975.944741 -24524.669961  -9618.273176    -12.550892
PG06   1598.849616 -16832.770071  20523.079592   -270.357807
PG07  19101.927272   -445.575411 -18344.490596   -279.661979
PG08  14756.632886   9308.690405 -20086.448475    -33.768596
PG09  25420.835458  -7282.456665   2551.206595   -216.054429
PG10 -11577.185964  21199.688298 -10683.088144   -339.005186
PG11  21082.169056  13023.978262  -9618.003745   -279.119841
PG12 -12060.604418 -10106.830362  21188.149006    118.665511
PG13  -6176.775530 -14049.213415 -21802.330239      9.482997
PG14  -9356.725522  16215.946998  19114.142396    -13.418393
PG15 -16490.657898  -8404.843002 -19485.067395   -231.651508
PG16   1331.090869  23705.838918 -11643.816029   -157.428706
PG17  18245.681451 -14335.523733  13302.156515    263.707445
PG18 -19060.230035     23.096410 -18525.937071    187.605890
PG19  11728.269913 -15140.104713  18094.806159   -159.655349
PG20 -14697.068089  11458.334119 -18923.644812    527.706245
PG21 -17967.255432   2883.579166 -18514.661145     -2.227913
PG22  11060.912963  17235.134542  17201.225768   -782.502821
PG23  25641.343632  -7397.618360   2765.421817   -114.718264
PG24 -22322.641902 -14425.323775   2912.219607    -12.944587
PG25 -15330.920327   1385.640532  21373.835220      3.569167
PG26  -4472.564023  26051.515004    461.487059    205.208108
PG27   3329.823145  14579.798585 -22074.171171   -291.983607
PG28  12320.938234 -21798.174046  -8487.214800    717.957082
PG29 -25791.346308   3165.578864   5510.619812   -102.866875
PG30  11196.681830 -10978.365661 -21401.283497   -218.715185
PG31  -1038.267652  17713.327377  19576.585952    -41.959958
PG32 -16798.683256  15772.081129  13162.143050    279.182348
PJ01 -26439.443597  32278.048831  -1632.914273   -305.619037
PJ02 -24388.449592  25820.669772  27455.353542 999999.999999
PJ03 -34072.627144  17795.799780 -12633.563638     -2.897568
PR01 -16188.326808  19716.988625    573.785943     61.430848
PR02  -2666.978224  16724.068282  19098.988726    426.366945
PR03  11166.358333   3660.078901  22692.204494     14.890281
PR04  18387.926490 -11464.167802  13491.236836     48.897059
PR05  15419.511214 -20047.329854  -3380.564224     50.347378
PR07 -11472.535197  -3179.963205 -22512.649744    -36.442348
PR08 -18435.392226  11453.609662 -13332.697879    -52.185931
PR09  -9234.580494 -23666.287914   1866.038398    132.229373
PR11 -10952.112101   2344.925511  22927.484487    -23.360880
PR12  -2672.832748  18071.826784  17816.709732    130.236491
PR13   7627.318764  24253.805094   2067.528472    -38.620097
PR14  13081.657955  16115.263250 -14828.617793     51.142293
PR15  11085.625224  -1248.614562 -22921.808343    106.466507
PR16   2071.786292 -18659.011521 -17356.730321     -3.475972
PR17  22316.462451   8575.120326  -8844.436946    324.302361
PR18  24167.017905   1161.284574   8184.976593     35.124908
PR19  13574.594967  -6343.802092  20641.249457    -93.014536
PR20  -7156.819564 -11509.956871  21601.812360   -411.529029
PR21 -22786.963086  -8276.542988   7963.005818   -124.096774
PR22 -23123.830809     28.708659 -10623.059559     -0.927780
PR23  -6667.816139   9090.051041 -22891.120919    305.087458
PR24   7947.434263  11923.716176 -21087.042179     -1.849988
PR26  -2435.951512 -10982.361267  22904.428893   -395.877035
EOF
